FLOCK 4Q-35             
1 58309U 23174BF  26060.51264243  .00037925  00000+0  68683-3 0  9992
2 58309  97.3916 149.3631 0008339 172.8655 187.2716 15.49516959129093
FLOCK 4Q-20             
1 58313U 23174BK  26060.49239778  .00061943  00000+0  80626-3 0  9997
2 58313  97.3957 152.4745 0006777 162.9772 197.1713 15.58536506129286
FLOCK 4Q-34             
1 58316U 23174BN  26060.21302006  .00053244  00000+0  80280-3 0  9996
2 58316  97.3875 149.8533 0006943 169.0862 191.0544 15.54589716129121
FLOCK 4Q-7              
1 58318U 23174BQ  26060.22046251  .00043051  00000+0  80609-3 0  9996
2 58318  97.3952 148.5976 0008287 165.2563 194.8931 15.48535851129007
FLOCK 4Q-15             
1 58319U 23174BR  26060.24162451  .00122594  00000+0  16154-2 0  9993
2 58319  97.3926 150.7912 0005659 174.3880 185.7440 15.57994574129158
FLOCK 4Q-2              
1 58320U 23174BS  26060.51435385  .00027904  00000+0  60186-3 0  9998
2 58320  97.3881 146.7856 0007956 164.1028 196.0472 15.44501170128954
FLOCK 4Q-9              
1 58322U 23174BU  26060.46668556  .00031573  00000+0  68853-3 0  9998
2 58322  97.3918 146.7812 0008070 165.1031 195.0457 15.44150210128937
FLOCK 4Q-4              
1 58327U 23174BZ  26060.46626945  .00027372  00000+0  60474-3 0  9992
2 58327  97.3873 146.1628 0007414 182.6000 177.5211 15.43797484128912
FLOCK 4Q-13             
1 58328U 23174CA  26060.19117941  .00029824  00000+0  60335-3 0  9994
2 58328  97.4034 148.2506 0007426 177.9978 182.1303 15.46376589128955
FLOCK 4Q-21             
1 58329U 23174CB  26060.22034031  .00059502  00000+0  83850-3 0  9990
2 58329  97.3948 151.2386 0005830 183.9235 176.1975 15.56417732129179
FLOCK 4BE-18            
1 60480U 24149N   26060.21985652  .00023530  00000+0  63321-3 0  9990
2 60480  97.3794 143.1037 0003014 278.9117  81.1787 15.37864778 85697
FLOCK 4BE-7             
1 60481U 24149P   26060.22343102  .00018949  00000+0  54336-3 0  9994
2 60481  97.3824 142.7166 0001900 274.3624  85.7403 15.35932125 85656
FLOCK 4BE-26            
1 60484U 24149S   26060.45715726  .00099960  00000+0  22822-2 0  9993
2 60484  97.3784 143.2008 0005597 264.0687  95.9922 15.42481773 85729
FLOCK 4BE-36            
1 60486U 24149U   26060.18864754  .00022500  00000+0  58938-3 0  9995
2 60486  97.3803 143.6064 0002788 294.3565  65.7389 15.38707038 85721
FLOCK 4BE-25            
1 60487U 24149V   26060.17068376  .00017068  00000+0  49405-3 0  9993
2 60487  97.3860 142.8122 0001075 263.0255  97.0867 15.35660696 85643
FLOCK 4BE-31            
1 60488U 24149W   26060.22691895  .00026193  00000+0  66847-3 0  9996
2 60488  97.3859 144.2512 0001638 289.2764  70.8304 15.39478916 85743
FLOCK 4BE-20            
1 60489U 24149X   26060.47086094  .00016086  00000+0  47611-3 0  9991
2 60489  97.3765 142.2614 0002285 284.0547  76.0442 15.34970360 85670
FLOCK 4BE-23            
1 60490U 24149Y   26060.17481517  .00016194  00000+0  48496-3 0  9991
2 60490  97.3848 142.2826 0002091 301.6147  58.4892 15.34598456 85615
FLOCK 4BE-15            
1 60491U 24149Z   26060.45594654  .00027107  00000+0  70619-3 0  9998
2 60491  97.3785 143.5646 0002672 341.1635  18.9511 15.38837917 85752
FLOCK 4BE-17            
1 60492U 24149AA  26060.16308181  .00019257  00000+0  54597-3 0  9999
2 60492  97.3840 142.9293 0001889 275.4951  84.6077 15.36283274 85650
FLOCK 4BE-22            
1 60494U 24149AC  26060.16907810  .00021690  00000+0  59449-3 0  9990
2 60494  97.3796 142.9782 0002719 302.1113  57.9867 15.37313414 85680
FLOCK 4BE-34            
1 60495U 24149AD  26060.45299657  .00019638  00000+0  53312-3 0  9998
2 60495  97.3843 144.0043 0002237 306.4105  53.6933 15.37631855 85757
FLOCK 4BE-32            
1 60497U 24149AF  26060.21330036  .00022861  00000+0  61171-3 0  9995
2 60497  97.3783 143.2701 0002635 304.9180  55.1817 15.38046891 85717
FLOCK 4BE-30            
1 60499U 24149AH  26060.22349873  .00021738  00000+0  58484-3 0  9992
2 60499  97.3865 143.8357 0001989 305.1356  54.9703 15.37890005 85097
FLOCK 4BE-11            
1 60501U 24149AK  26060.46132377  .00025292  00000+0  65856-3 0  9991
2 60501  97.3764 143.6418 0002994 300.9568  59.1383 15.38866579 85765
FLOCK 4BE-24            
1 60505U 24149AP  26060.18209386  .00022847  00000+0  59802-3 0  9996
2 60505  97.3780 143.6074 0002936 314.6677  45.4328 15.38727125 85731
TANAGER-1               
1 60507U 24149AR  26060.26555992  .00004875  00000+0  11047-3 0  9994
2 60507  97.3770 153.5244 0007191 211.3933 148.6886 15.43566890 86380
FLOCK 4BE-29            
1 60509U 24149AT  26060.21576355  .00025573  00000+0  64216-3 0  9991
2 60509  97.3862 144.7622 0002098 335.7393  24.3754 15.39979220 85774
FLOCK 4BE-2             
1 60511U 24149AV  26060.19747889  .00048680  00000+0  11272-2 0  9990
2 60511  97.3870 145.2897 0002655 311.3310  48.7709 15.42295428 85803
FLOCK 4BE-13            
1 60512U 24149AW  26060.51190321  .00023433  00000+0  61893-3 0  9994
2 60512  97.3782 144.0442 0003457 301.5885  58.5023 15.38440889 85792
