OBJECT_NAME,OBJECT_ID,EPOCH,MEAN_MOTION,ECCENTRICITY,INCLINATION,RA_OF_ASC_NODE,ARG_OF_PERICENTER,MEAN_ANOMALY,EPHEMERIS_TYPE,CLASSIFICATION_TYPE,NORAD_CAT_ID,ELEMENT_SET_NO,REV_AT_EPOCH,BSTAR,MEAN_MOTION_DOT,MEAN_MOTION_DDOT
FLOCK 4Q-35,2023-174BF,2026-03-01T12:18:12.305952,15.49516959,.0008339,97.3916,149.3631,172.8655,187.2716,0,U,58309,999,12909,.68683E-3,.37925E-3,0
FLOCK 4Q-20,2023-174BK,2026-03-01T11:49:03.168192,15.58536506,.0006777,97.3957,152.4745,162.9772,197.1713,0,U,58313,999,12928,.80626E-3,.61943E-3,0
FLOCK 4Q-34,2023-174BN,2026-03-01T05:06:44.933184,15.54589716,.0006943,97.3875,149.8533,169.0862,191.0544,0,U,58316,999,12912,.8028E-3,.53244E-3,0
FLOCK 4Q-7,2023-174BQ,2026-03-01T05:17:27.960864,15.48535851,.0008287,97.3952,148.5976,165.2563,194.8931,0,U,58318,999,12900,.80609E-3,.43051E-3,0
FLOCK 4Q-15,2023-174BR,2026-03-01T05:47:56.357664,15.57994574,.0005659,97.3926,150.7912,174.3880,185.7440,0,U,58319,999,12915,.16154E-2,.122594E-2,0
FLOCK 4Q-2,2023-174BS,2026-03-01T12:20:40.172640,15.44501170,.0007956,97.3881,146.7856,164.1028,196.0472,0,U,58320,999,12895,.60186E-3,.27904E-3,0
FLOCK 4Q-9,2023-174BU,2026-03-01T11:12:01.632384,15.44150210,.000807,97.3918,146.7812,165.1031,195.0457,0,U,58322,999,12893,.68853E-3,.31573E-3,0
FLOCK 4Q-4,2023-174BZ,2026-03-01T11:11:25.680480,15.43797484,.0007414,97.3873,146.1628,182.6000,177.5211,0,U,58327,999,12891,.60474E-3,.27372E-3,0
FLOCK 4Q-13,2023-174CA,2026-03-01T04:35:17.901024,15.46376589,.00074265,97.4034,148.2506,177.9978,182.1303,0,U,58328,999,12895,.60335163E-3,.29824E-3,0
FLOCK 4Q-21,2023-174CB,2026-03-01T05:17:17.402784,15.56417732,.000583,97.3948,151.2386,183.9235,176.1975,0,U,58329,999,12917,.8385E-3,.59502E-3,0
FLOCK 4BE-18,2024-149N,2026-03-01T05:16:35.603328,15.37864778,.0003014,97.3794,143.1037,278.9117,81.1787,0,U,60480,999,8569,.63321E-3,.2353E-3,0
FLOCK 4BE-7,2024-149P,2026-03-01T05:21:44.440128,15.35932125,.00019,97.3824,142.7166,274.3624,85.7403,0,U,60481,999,8565,.54336E-3,.18949E-3,0
FLOCK 4BE-26,2024-149S,2026-03-01T10:58:18.387264,15.42481773,.0005597,97.3784,143.2008,264.0687,95.9922,0,U,60484,999,8572,.22822E-2,.9996E-3,0
FLOCK 4BE-36,2024-149U,2026-03-01T04:31:39.147456,15.38707038,.00027884,97.3803,143.6064,294.3565,65.7389,0,U,60486,999,8572,.58938454E-3,.225E-3,0
FLOCK 4BE-25,2024-149V,2026-03-01T04:05:47.076864,15.35660696,.0001075,97.3860,142.8122,263.0255,97.0867,0,U,60487,999,8564,.49405018E-3,.17068E-3,0
FLOCK 4BE-31,2024-149W,2026-03-01T05:26:45.797280,15.39478916,.0001638,97.3859,144.2512,289.2764,70.8304,0,U,60488,999,8574,.66847E-3,.26193E-3,0
FLOCK 4BE-20,2024-149X,2026-03-01T11:18:02.385216,15.34970360,.0002285,97.3765,142.2614,284.0547,76.0442,0,U,60489,999,8567,.47611E-3,.16086E-3,0
FLOCK 4BE-23,2024-149Y,2026-03-01T04:11:44.030688,15.34598456,.00020916,97.3848,142.2826,301.6147,58.4892,0,U,60490,999,8561,.48496104E-3,.16194E-3,0
FLOCK 4BE-15,2024-149Z,2026-03-01T10:56:33.781056,15.38837917,.0002672,97.3785,143.5646,341.1635,18.9511,0,U,60491,999,8575,.70619E-3,.27107E-3,0
FLOCK 4BE-17,2024-149AA,2026-03-01T03:54:50.268384,15.36283274,.00018893,97.3840,142.9293,275.4951,84.6077,0,U,60492,999,8565,.54597431E-3,.19257E-3,0
FLOCK 4BE-22,2024-149AC,2026-03-01T04:03:28.347840,15.37313414,.00027196,97.3796,142.9782,302.1113,57.9867,0,U,60494,999,8568,.59449322E-3,.2169E-3,0
FLOCK 4BE-34,2024-149AD,2026-03-01T10:52:18.903648,15.37631855,.0002237,97.3843,144.0043,306.4105,53.6933,0,U,60495,999,8575,.53312E-3,.19638E-3,0
FLOCK 4BE-32,2024-149AF,2026-03-01T05:07:09.151104,15.38046891,.0002635,97.3783,143.2701,304.9180,55.1817,0,U,60497,999,8571,.61171E-3,.22861E-3,0
FLOCK 4BE-30,2024-149AH,2026-03-01T05:21:50.290272,15.37890005,.0001989,97.3865,143.8357,305.1356,54.9703,0,U,60499,999,8509,.58484E-3,.21738E-3,0
FLOCK 4BE-11,2024-149AK,2026-03-01T11:04:18.373728,15.38866579,.0002994,97.3764,143.6418,300.9568,59.1383,0,U,60501,999,8576,.65856E-3,.25292E-3,0
FLOCK 4BE-24,2024-149AP,2026-03-01T04:22:12.909504,15.38727125,.00029365,97.3780,143.6074,314.6677,45.4328,0,U,60505,999,8573,.59801619E-3,.22847E-3,0
TANAGER-1,2024-149AR,2026-03-01T06:22:24.377088,15.43566890,.0007191,97.3770,153.5244,211.3933,148.6886,0,U,60507,999,8638,.11047E-3,.4875E-4,0
FLOCK 4BE-29,2024-149AT,2026-03-01T05:10:41.970720,15.39979220,.0002098,97.3862,144.7622,335.7393,24.3754,0,U,60509,999,8577,.64216E-3,.25573E-3,0
FLOCK 4BE-2,2024-149AV,2026-03-01T04:44:22.176096,15.42295428,.00026554,97.3870,145.2897,311.3310,48.7709,0,U,60511,999,8580,.11271968E-2,.4868E-3,0
FLOCK 4BE-13,2024-149AW,2026-03-01T12:17:08.437344,15.38440889,.0003457,97.3782,144.0442,301.5885,58.5023,0,U,60512,999,8579,.61893E-3,.23433E-3,0
